HAIYANG 2A              
1 37781U 11043A   16075.51247200 -.00000444  00000-0 -38989-3 0  9999
2 37781  99.3415  87.7363 0001507 105.8903 254.2395 13.79301030230778
RASAT                   
1 37791U 11044D   16075.49357074  .00000222  00000-0  50889-4 0  9995
2 37791  98.1476 166.2702 0023103 122.2457 238.0992 14.64502989244630
MEGHA-TROPIQUES         
1 37838U 11058A   16075.14809749  .00000344  00000-0  45253-4 0  9999
2 37838  19.9785  36.2072 0009971  70.3175 289.8305 14.09695613228257
SRMSAT                  
1 37841U 11058D   16075.17939223  .00000356  00000-0  50642-4 0  9998
2 37841  19.9730  25.7925 0011997  80.2698  42.3739 14.10529789228392
YAOGAN 13               
1 37941U 11072A   16075.53608692  .00003752  00000-0  18792-3 0  9990
2 37941  97.4666   3.0941 0002466 114.7961 353.9939 15.17992827238081
PLEIADES 1A             
1 38012U 11076F   16075.53530632  .00000199  00000-0  52610-4 0  9992
2 38012  98.1650 151.0804 0001160  80.2439 279.8892 14.58575229226001
ZIYUAN 1-02C (ZY 1-02C) 
1 38038U 11079A   16075.54102647  .00000153  00000-0  68023-4 0  9990
2 38038  98.3984 146.9521 0001672  70.9783 289.1587 14.35426469221709
ZIYUAN 3 (ZY 3)         
1 38046U 12001A   16075.47964300  .00003071  00000-0  14021-3 0  9999
2 38046  97.3365 148.8590 0003176 104.0124 312.4254 15.21330510232212
RISAT 1                 
1 38248U 12017A   16075.55612520  .00000950  00000-0  64092-4 0  9990
2 38248  97.5637  83.5398 0005210 152.6277   3.6787 15.08969119214072
ARIRANG-3 (KOMPSAT-3)   
1 38338U 12025B   16075.55738886  .00000292  00000-0  68569-4 0  9995
2 38338  98.1553  13.8429 0009646 335.4144  24.6588 14.61382202204192
KANOPUS-V 1             
1 38707U 12039A   16075.55555760 -.00019926  00000-0 -94050-3 0  9997
2 38707  97.4660 353.2237 0001748  82.8664  42.1181 15.19434437202392
SPOT 6                  
1 38755U 12047A   16075.55229019  .00000195  00000-0  51816-4 0  9994
2 38755  98.1943 143.9580 0001462  72.2633 287.8723 14.58570660187083
PLEIADES 1B             
1 39019U 12068A   16075.50118944  .00000194  00000-0  51469-4 0  9993
2 39019  98.1706 151.1133 0001318  82.5454 277.5896 14.58578423174857
GOKTURK 2               
1 39030U 12073A   16075.56771640  .00000217  00000-0  48679-4 0  9991
2 39030  98.0451 330.3665 0015050 131.9728 228.2759 14.65651442173185
LANDSAT 8               
1 39084U 13008A   16074.82775068  .00000146  00000-0  42445-4 0  9991
2 39084  98.1947 145.8997 0001173  94.3772 265.7561 14.57119849164160
SARAL                   
1 39086U 13009A   16075.19762747  .00000034  00000-0  28746-4 0  9999
2 39086  98.5417 263.9210 0000412 131.8443 228.2776 14.32255876159413
GAOFEN 1                
1 39150U 13018A   16075.52338406  .00000361  00000-0  59065-4 0  9990
2 39150  97.9801 159.3630 0019906  93.4669 266.8815 14.76509062155561
VNREDSAT 1              
1 39160U 13021B   16075.53122319  .00000326  00000-0  72828-4 0  9993
2 39160  98.1231 153.4866 0001474  72.9413 287.1952 14.62975396152543
ARIRANG-5 (KOMPSAT-5)   
1 39227U 13042A   16075.56296263 -.00000024  00000-0  26007-5 0  9998
2 39227  97.6014 261.7568 0001112  79.5047   4.8414 15.04522730140739
YAOGAN 18               
1 39363U 13059A   16075.40504778  .00003092  00000-0  15576-3 0  9997
2 39363  97.4426 146.9077 0001325  89.1107 332.0498 15.17911381131729
SKYSAT-1                
1 39418U 13066C   16075.47098443  .00000374  00000-0  36529-4 0  9992
2 39418  97.7330 157.5855 0023164  25.4398 334.7959 14.98052962126396
DUBAISAT-2              
1 39419U 13066D   16075.50604066  .00001403  00000-0  13944-3 0  9990
2 39419  97.7224 151.5154 0013964   3.1071 357.0235 14.93205385126044
GPM-CORE                
1 39574U 14009C   16075.18539072  .00014519  00000-0  21164-3 0  9993
2 39574  65.0130  40.7116 0007864 287.7831  72.2457 15.55900723116120
SENTINEL-1A             
1 39634U 14016A   16075.51575283 -.00000181  00000-0 -28611-4 0  9996
2 39634  98.1815  83.6940 0001309  79.0067 281.1283 14.59196978103807
KAZEOSAT 1              
1 39731U 14024A   16075.48464515  .00000110  00000-0  47062-4 0  9995
2 39731  98.4570 153.7488 0001257  73.5199 286.6129 14.41983768 98780
ALOS-2                  
1 39766U 14029A   16075.49666480 -.00000057  00000-0 -76181-6 0  9992
2 39766  97.9194 173.4214 0001717  90.8367 269.3041 14.79472212 97788
KAZEOSAT 2              
1 40010U 14033A   16075.56825293  .00000332  00000-0  48469-4 0  9998
2 40010  97.9323 336.5091 0016789 334.1565  25.8809 14.82080305 94012
HODOYOSHI-4             
1 40011U 14033B   16075.53164773  .00000591  00000-0  83579-4 0  9993
2 40011  97.9278 334.3109 0026500 323.6974  36.2427 14.80627526 93883
DEIMOS-2                
1 40013U 14033D   16075.56865269  .00000777  00000-0  98516-4 0  9999
2 40013  97.9177 337.6879 0002386  48.8767 311.2656 14.84561658 94153
HODOYOSHI-3             
1 40015U 14033F   16075.28066549  .00000573  00000-0  85874-4 0  9991
2 40015  97.9235 331.3154 0036488 323.1217  36.7485 14.77997980 93685
SPOT 7                  
1 40053U 14034A   16075.44859699 -.00000046  00000-0  00000+0 0  9997
2 40053  98.2093 143.5412 0001562  91.1462 268.9922 14.58554646 91008
SKYSAT-2                
1 40072U 14037D   16075.48495003  .00000558  00000-0  79790-4 0  9994
2 40072  98.3318 162.8842 0007801  83.8334 276.3761 14.80785003 91090
WORLDVIEW-3 (WV-3)      
1 40115U 14048A   16075.53986569  .00000602  00000-0  76817-4 0  9999
2 40115  97.9080 154.2836 0001491  60.5143 299.6222 14.85077974 86041
YAOGAN 21               
1 40143U 14053A   16075.55886209  .00004475  00000-0  18085-3 0  9992
2 40143  97.3563 151.9512 0012080  20.4988  86.2928 15.25188241 84513
YAOGAN 22               
1 40275U 14063A   16075.46995137 -.00000044  00000-0  00000+0 0  9993
2 40275 100.3681 191.4999 0006321  45.0246 315.1379 13.15306913 67334
ASNARO                  
1 40298U 14070A   16075.50402118  .00005105  00000-0  24292-3 0  9998
2 40298  97.4377 159.0331 0001448  75.0475  20.4353 15.19605082 75207
HODOYOSHI-1             
1 40299U 14070B   16075.52642159  .00003001  00000-0  13841-3 0  9993
2 40299  97.4333 158.6377 0012098 258.3739 196.7894 15.20968508 75199
CHUBUSAT-1              
1 40300U 14070C   16075.51294613  .00003142  00000-0  15082-3 0  9998
2 40300  97.4298 157.1166 0019767 264.8920 189.7844 15.19436474 75104
QSAT-EOS                
1 40301U 14070D   16075.53402200  .00006221  00000-0  28631-3 0  9999
2 40301  97.4245 156.3834 0028147 264.9810 191.0876 15.20326760 75076
TSUBAME                 
1 40302U 14070E   16075.52254044  .00003194  00000-0  17207-3 0  9993
2 40302  97.4208 153.2141 0039565 275.7357 180.0896 15.14863629 74875
YAOGAN 23               
1 40305U 14071A   16075.56363784  .00002793  00000-0  14127-3 0  9995
2 40305  97.3858  17.3064 0000815 108.5769 337.1895 15.17842470 73853
YAOGAN 24               
1 40310U 14072A   16075.38352400  .00000488  00000-0  76455-4 0  9997
2 40310  97.9541 194.6391 0018460 107.0635 253.2603 14.76934968 70992
CBERS-4                 
1 40336U 14079A   16075.55368027  .00000054  00000-0  33786-4 0  9992
2 40336  98.4976 152.1931 0001287  61.4666 298.6650 14.35446292 66615
RESURS P2               
1 40360U 14087A   16075.55469832  .00001890  00000-0  62109-4 0  9994
2 40360  97.2816 170.9478 0009584 191.8869 263.8119 15.32762684 68167
YAOGAN 26               
1 40362U 14088A   16075.49083426  .00005405  00000-0  21266-3 0  9995
2 40362  97.3925 154.1875 0003519  84.3823 333.1261 15.26052650 67788
SMAP                    
1 40376U 15003A   16075.44928513  .00000293  00000-0  65857-4 0  9993
2 40376  98.1237  83.8845 0000863  82.2629 277.8676 14.63372284 59809
KOMPSAT 3A              
1 40536U 15014A   16075.56933637  .00002739  00000-0  16220-3 0  9995
2 40536  97.5483  16.1280 0012643 128.4889 330.6955 15.12189394 53743
SENTINEL-2A             
1 40697U 15028A   16075.57809381  .00000089  00000-0  50788-4 0  9991
2 40697  98.5726 151.1035 0001246  95.3418 264.7917 14.30815156 38117
CARBONITE 1 (CBNT-1)    
1 40718U 15032D   16075.06188696  .00000175  00000-0  34040-4 0  9992
2 40718  98.0220 327.1008 0017038 166.6094 193.5581 14.74386935 36590
YAOGAN 27               
1 40878U 15040A   16075.47778080 -.00000045  00000-0  00000+0 0  9996
2 40878 100.4610 136.8349 0008874 172.4482 187.6765 13.15946688 26481
LAPAN-A2                
1 40931U 15052B   16075.25162327  .00001006  00000-0  51557-4 0  9991
2 40931   5.9983 264.8262 0012735 232.3347 127.5755 14.76438531 25028
YAOGAN 28               
1 41026U 15064A   16075.50261817  .00006077  00000-0  21078-3 0  9999
2 41026  97.2565 205.9637 0008840 156.6921 267.4820 15.30124672 19618
YAOGAN 29               
1 41038U 15069A   16075.50808856  .00000204  00000-0  33423-4 0  9991
2 41038  97.8523  60.3133 0000926  70.2681 289.8616 14.80282133 16222
JASON-3                 
1 41240U 16002A   16075.08007608  .00000169  00000-0  10000-2 0  9997
2 41240  66.0452 355.7120 0007894 270.8763  89.1301 12.80928906  7341
